{"type":"FeatureCollection","features":[{"type":"Feature","id":4,"geometry":{"type":"Polygon","coordinates":[[[-118.636106811926,34.036171428852],[-118.641227209045,34.0374518213255],[-118.645422341422,34.0381143424017],[-118.647704062244,34.0381515625333],[-118.648081354663,34.0380324580546],[-118.648889838419,34.0374741535809],[-118.656723147696,34.0384790989877],[-118.661151842047,34.038866185894],[-118.664062383568,34.0389778452502],[-118.664295945542,34.047508185443],[-118.664224080319,34.0616863024061],[-118.708232546088,34.0683465936651],[-118.708061866184,34.0691056103878],[-118.706858123703,34.0706905939712],[-118.705420819249,34.0732279942162],[-118.704612335493,34.0743515694594],[-118.703534357152,34.075311433194],[-118.703273845719,34.0757057926611],[-118.702321631518,34.0777222057691],[-118.702285698907,34.0780942324623],[-118.703884700113,34.0806016497499],[-118.704899796384,34.083183393537],[-118.704863863772,34.0840166773228],[-118.703731986514,34.0870298225735],[-118.703857750654,34.0879672236712],[-118.704163177851,34.0884433599366],[-118.709337473887,34.0932417712519],[-118.711340716971,34.0960165423519],[-118.711700043085,34.0968125054754],[-118.711709026237,34.0979729616636],[-118.711143087608,34.0996243526515],[-118.711143087608,34.1031129961305],[-118.711403599041,34.10390889251],[-118.711098171844,34.1040279044093],[-118.711080205538,34.104154354369],[-118.711089188691,34.1071965346666],[-118.706750325869,34.1071890967063],[-118.706732359563,34.1081857775514],[-118.654567191015,34.1075907456235],[-118.654513292097,34.1181073181771],[-118.650273243956,34.1181073181771],[-118.650075614594,34.1290836185247],[-118.644982166933,34.1290613104163],[-118.644955217474,34.1253283373742],[-118.641128394364,34.1253209010084],[-118.623835825145,34.1254175737126],[-118.610639573621,34.1253357737393],[-118.610621607315,34.1290241302226],[-118.606255795035,34.1290092581406],[-118.60621087927,34.1400956691655],[-118.61060364101,34.140065928895],[-118.610585674704,34.1472553346634],[-118.609660409961,34.1472479002268],[-118.564834477284,34.1301915804988],[-118.564187690279,34.1304146583346],[-118.562921065729,34.1304592738311],[-118.560998671021,34.1299461941995],[-118.55985781061,34.1285259140498],[-118.558779832269,34.1277376854503],[-118.558573219753,34.1274179302438],[-118.557504224565,34.1267114900348],[-118.555725560303,34.1264958386897],[-118.555276402661,34.1257893907754],[-118.554270289543,34.1255439916974],[-118.553776216136,34.1248895906738],[-118.552132299166,34.1248152266006],[-118.550021258249,34.1256034824484],[-118.549042094589,34.1258414450337],[-118.547910217331,34.1257224638248],[-118.547101733575,34.1259158082042],[-118.545673412274,34.1259678623847],[-118.544990692658,34.1262801867944],[-118.544451703487,34.1262876230758],[-118.543885764858,34.1267709799642],[-118.54177472394,34.1275146005501],[-118.540723695058,34.1282805229152],[-118.539430121049,34.1284069366189],[-118.538891131878,34.1281466729052],[-118.538289260638,34.1282507784868],[-118.536798057266,34.1288233568943],[-118.535720078925,34.128771304472],[-118.534866679406,34.1289274616426],[-118.532063935719,34.1288679732307],[-118.530923075308,34.1293736233975],[-118.52931509095,34.1295000354666],[-118.528282028373,34.128704379882],[-118.525631998285,34.1286597634593],[-118.524940295516,34.1285333501336],[-118.524625885167,34.1283400117405],[-118.524149778066,34.1285036057942],[-118.523062816572,34.1284589892655],[-118.521580596353,34.1275443452375],[-118.521140421864,34.1281318006687],[-118.52049363486,34.1285407862168],[-118.520017527759,34.1286820716736],[-118.519128195628,34.1286300191644],[-118.518804802126,34.1288010487172],[-118.517645975409,34.128838229009],[-118.516918340029,34.1285556583813],[-118.51543611981,34.1289274616426],[-118.513675421853,34.1290613104163],[-118.512831005486,34.1287489962812],[-118.512381847844,34.1291059266271],[-118.51123200428,34.1293661873876],[-118.510270806926,34.1302510679793],[-118.509471306324,34.1301841445608],[-118.508716721485,34.1306749150656],[-118.508438243747,34.1306451714798],[-118.507782473589,34.1301990164362],[-118.507234501266,34.1289943860559],[-118.506282287065,34.128704379882],[-118.505662449519,34.128838229009],[-118.505249224488,34.1287266880846],[-118.504593454331,34.1279905142923],[-118.50399158309,34.1277153769868],[-118.50313818357,34.1279384613572],[-118.500757648068,34.1266668725602],[-118.500281540967,34.1266073825576],[-118.499140680556,34.1256852821626],[-118.499634753962,34.1250680641826],[-118.499688652879,34.1238484876971],[-118.49773032556,34.1212754210623],[-118.497487780433,34.1200632267002],[-118.496221155883,34.1184047976755],[-118.49548453735,34.1168578928568],[-118.494280794869,34.1159579977089],[-118.493831637227,34.1145151706295],[-118.493445361655,34.1139796821519],[-118.49529589114,34.1114286279981],[-118.495197076459,34.1111831872439],[-118.494945548179,34.1111831872439],[-118.494837750345,34.107456862863],[-118.493921468755,34.1048535448519],[-118.494343676939,34.1044072537212],[-118.494146047576,34.1041246014543],[-118.495673183559,34.0999962831125],[-118.497595578267,34.0971993259728],[-118.498296264189,34.0940749560443],[-118.497784224477,34.0921705216109],[-118.497209302695,34.0877812322153],[-118.49535877321,34.0852963471705],[-118.494469441079,34.0817623281652],[-118.494837750345,34.0815837632906],[-118.494406559009,34.0798055342035],[-118.49225958548,34.0772385686249],[-118.492591962135,34.0771492814655],[-118.49225958548,34.0767474880835],[-118.492556029524,34.0767028442567],[-118.492511113759,34.0765986752361],[-118.493247732292,34.0760555061243],[-118.493068069236,34.0758769292171],[-118.493319597515,34.0757950813422],[-118.493202816528,34.075311433194],[-118.492942305096,34.0750807692584],[-118.492313484397,34.0739423219242],[-118.491738562615,34.0735107496542],[-118.490750415802,34.0732354351609],[-118.490202443479,34.0725508655152],[-118.490067696187,34.0728782690794],[-118.489771252143,34.072521101492],[-118.489735319531,34.0710403281395],[-118.488702256955,34.0690907277723],[-118.488226149854,34.0692767602779],[-118.486492401356,34.0674164168404],[-118.485046113748,34.0661662431026],[-118.484507124578,34.0652434839882],[-118.482485915189,34.0633607265633],[-118.481461835765,34.0615300211301],[-118.480662335162,34.0606816320316],[-118.480069447074,34.0603839496334],[-118.479790969336,34.0604360441286],[-118.476961276191,34.0569456421552],[-118.493319597515,34.0538793282243],[-118.494487407384,34.0505524010097],[-118.491927208825,34.0483641495207],[-118.493481294266,34.047850572111],[-118.502248851439,34.0412631077837],[-118.505410921239,34.0382334467655],[-118.505878045187,34.0365734146169],[-118.506003809327,34.0366999652968],[-118.506650596331,34.0340721389085],[-118.507863321965,34.0320770208887],[-118.51331609574,34.0269922355816],[-118.514079663731,34.0253692092109],[-118.516002058439,34.0263445177704],[-118.517610042798,34.0250267317905],[-118.526458448346,34.0307667686062],[-118.527446595159,34.0310124424504],[-118.529548652924,34.0322408010012],[-118.530078658941,34.0324194698544],[-118.530662563876,34.0324343589085],[-118.532809537405,34.0335435860911],[-118.533644970619,34.0338041407084],[-118.533968364121,34.0336999189575],[-118.536232118637,34.0348612398036],[-118.537040602393,34.0350026816411],[-118.5411728527,34.0371838338024],[-118.544604417085,34.0385312069433],[-118.546221384597,34.0389108496541],[-118.546356131889,34.0387991902097],[-118.549796679428,34.0393277102812],[-118.552841968241,34.0386949745956],[-118.553803165595,34.0381292304563],[-118.554440969447,34.0379207974538],[-118.556237600015,34.0380399020894],[-118.55638133046,34.0379431295857],[-118.562211396654,34.0403698528857],[-118.563855313624,34.0408909193862],[-118.565490247441,34.0412110015063],[-118.565687876804,34.0411142326207],[-118.565768725179,34.041233332772],[-118.568670283547,34.0417692813832],[-118.571562858762,34.0417543939675],[-118.57421288885,34.0406824931701],[-118.57579392375,34.039394705548],[-118.576270030851,34.0396329105127],[-118.577213261899,34.0397445688596],[-118.579027858773,34.0398190076758],[-118.579917190904,34.0396924616493],[-118.580815506188,34.0393128224369],[-118.581875518224,34.0384344350002],[-118.583519435193,34.0378910212688],[-118.584624362993,34.0379580176704],[-118.586906083815,34.0387396384459],[-118.588612882854,34.0391416120401],[-118.589726793807,34.0391267241632],[-118.59185580103,34.0396031349287],[-118.59258343641,34.0396626860862],[-118.592843947843,34.0394542568519],[-118.592843947843,34.0396329105127],[-118.593742263127,34.0395584715331],[-118.595188550734,34.0397073494269],[-118.597083995984,34.0391862756552],[-118.598404519451,34.0393500420427],[-118.599671144002,34.0392160513855],[-118.602958977942,34.0392383831764],[-118.606228845576,34.0383451069547],[-118.607136144013,34.0378612450733],[-118.608178189743,34.0369977308576],[-118.60956159528,34.036528749626],[-118.61022634859,34.0365213054585],[-118.612624850399,34.0369679543486],[-118.614825722845,34.0369307336976],[-118.616577437649,34.0372433866585],[-118.622703947887,34.0377644723658],[-118.624680241512,34.0376825876809],[-118.62543482635,34.0373401599605],[-118.627123659085,34.0370051749833],[-118.632127275217,34.0372061661283],[-118.632774062222,34.0370572838444],[-118.633789158493,34.0370721720845],[-118.63444492865,34.0369456219599],[-118.63529832817,34.036245870804],[-118.636106811926,34.036171428852]]]},"properties":{"OBJECTID":4,"COUNTY":"LOS ANGELES","ZONE_NAME":null,"STATUS":"Evacuation Order","EVENT_TYPE":"Alert LA County","NOTES":"LA COUNTY OFFICE OF EMERGENCY MANAGEMENT: FAST MOVING WILDFIRE IN YOUR AREA. AN EVACUATION ORDER HAS BEEN ISSUED FOR THE YOUR AREA. LEAVE NOW. MORE INFO AT ALERTLA.ORG.","EFFECTIVE_DATE_R9":1736305200000}},{"type":"Feature","id":5,"geometry":{"type":"Polygon","coordinates":[[[-118.706732359563,34.1081857775514],[-118.706750325869,34.1071890967063],[-118.711089188691,34.1071965346666],[-118.711080205538,34.104154354369],[-118.711098171844,34.1040279044093],[-118.711403599041,34.10390889251],[-118.711771908307,34.1047047814032],[-118.711861739836,34.1053667767419],[-118.711421565346,34.1070775272243],[-118.711502413722,34.1089816262126],[-118.711358683277,34.1099262219161],[-118.711035289774,34.1111013735009],[-118.708546956437,34.1172892441608],[-118.706624561729,34.1247036803682],[-118.706193370393,34.1254621918465],[-118.705780145362,34.1258637539917],[-118.707388129721,34.1274476749652],[-118.708115765101,34.1289497697862],[-118.708133731407,34.1304667097449],[-118.707064736218,34.1343035540101],[-118.70710066883,34.1359691066062],[-118.707810337904,34.1380286954506],[-118.709705783154,34.1407722574912],[-118.707019820454,34.1419098058708],[-118.701513147763,34.1449878011694],[-118.700201607448,34.1459691673979],[-118.696725127298,34.149559978468],[-118.695889694084,34.1501918859465],[-118.694955446189,34.1506453695762],[-118.693931366765,34.1509724710108],[-118.692440163393,34.1511434553475],[-118.687858755444,34.150466950078],[-118.68689755809,34.1505264232859],[-118.683807353513,34.1510468120693],[-118.680330873363,34.1510542461715],[-118.678462377572,34.1507866180784],[-118.674653520767,34.1494782018606],[-118.672802991282,34.1491213575563],[-118.668257515944,34.1492997798969],[-118.664969682005,34.1495822811653],[-118.663020337838,34.149998597102],[-118.6537317578,34.1526674308826],[-118.642008743343,34.1576777712497],[-118.638433448512,34.1590157940501],[-118.637804627813,34.1582204163855],[-118.638532263193,34.1576480371689],[-118.632181174134,34.150533857434],[-118.631264892544,34.1510988507713],[-118.630276745732,34.150400042669],[-118.630097082675,34.1498350446573],[-118.62982758809,34.1498945183102],[-118.629019104334,34.1472776379692],[-118.614987419596,34.1472850724032],[-118.614996402749,34.1492774771249],[-118.609660409961,34.1472479002268],[-118.610585674704,34.1472553346634],[-118.61060364101,34.140065928895],[-118.60621087927,34.1400956691655],[-118.606255795035,34.1290092581406],[-118.610621607315,34.1290241302226],[-118.610639573621,34.1253357737393],[-118.623835825145,34.1254175737126],[-118.641128394364,34.1253209010084],[-118.644955217474,34.1253283373742],[-118.644982166933,34.1290613104163],[-118.650075614594,34.1290836185247],[-118.650273243956,34.1181073181771],[-118.654513292097,34.1181073181771],[-118.654567191015,34.1075907456235],[-118.706732359563,34.1081857775514]]]},"properties":{"OBJECTID":5,"COUNTY":"LOS ANGELES","ZONE_NAME":null,"STATUS":"Evacuation Warning","EVENT_TYPE":"Alert LA County","NOTES":"LA COUNTY OFFICE OF EMERGENCY MANAGEMENT: FAST MOVING WILDFIRE IN THE AREA. AN EVACUATION WARNING HAS BEEN ISSUED. PREPARE TO LEAVE. MORE INFORMATION AT ALERTLA.ORG.","EFFECTIVE_DATE_R9":1736305200000}},{"type":"Feature","id":6,"geometry":{"type":"Polygon","coordinates":[[[-118.723845265726,34.0434589860832],[-118.719605217585,34.0437195102441],[-118.719326739847,34.0421935716318],[-118.718347576187,34.0403549652244],[-118.718401475104,34.0392234953165],[-118.718087064755,34.0367892950748],[-118.714835163426,34.0349282385981],[-118.713577522028,34.0350250145412],[-118.715122624317,34.0360523215928],[-118.715715512405,34.0369381778291],[-118.715050759094,34.0377495842472],[-118.715266354762,34.0389480694362],[-118.71494296126,34.0393649298804],[-118.714439904701,34.0391862756552],[-118.714898045496,34.0394170372919],[-118.714332106867,34.040109318435],[-118.713855999766,34.039938109646],[-118.713451757889,34.0395361398265],[-118.713065482316,34.0399827728417],[-118.712580392063,34.0402358638396],[-118.712059369198,34.0392458271054],[-118.710846643565,34.0384716549914],[-118.70861882166,34.0364691962681],[-118.708762552105,34.0359034372838],[-118.709705783154,34.0350845689129],[-118.709696800001,34.0343848024053],[-118.703570289763,34.0348686841167],[-118.703597239222,34.0369456219599],[-118.703237913108,34.0378463569716],[-118.702654008173,34.038613090809],[-118.701234670025,34.0395510276315],[-118.697812088792,34.0406452741491],[-118.699051763884,34.0423871068298],[-118.699285325858,34.0436301877648],[-118.698979898661,34.0447169382051],[-118.698485825255,34.0447913726571],[-118.698369044268,34.0449997887753],[-118.69091302741,34.0454612797855],[-118.693140849315,34.049584813779],[-118.694128996127,34.0510734049447],[-118.694685951603,34.0516241770518],[-118.695961559307,34.0524503285036],[-118.696518514783,34.0532839146014],[-118.696590380006,34.0540058530805],[-118.696168171822,34.0548915217858],[-118.694416457018,34.0561120920646],[-118.694003231987,34.0567967945259],[-118.694380524407,34.0591708830491],[-118.69420086135,34.061195131711],[-118.694748833673,34.0622072379114],[-118.695431553289,34.062854681862],[-118.696653262076,34.0635095626651],[-118.697048520801,34.0635765388256],[-118.697776156181,34.0635170044633],[-118.699473972068,34.0630556117375],[-118.700722630313,34.0634574700592],[-118.702501294575,34.0637551416615],[-118.705286071956,34.0632416574937],[-118.707136601441,34.0639411858819],[-118.708025933572,34.0648267507718],[-118.708564922743,34.0657420728222],[-118.708232546088,34.0683465936651],[-118.664224080319,34.0616863024061],[-118.664242046624,34.047508185443],[-118.664295945542,34.047508185443],[-118.664062383568,34.0389778452502],[-118.667251402826,34.0390150650029],[-118.671464501509,34.0387470824186],[-118.671509417273,34.0386428667405],[-118.67314435109,34.0384046589955],[-118.675812347484,34.0374592654113],[-118.67643218503,34.0371391691329],[-118.675345223536,34.0356354448689],[-118.675632684427,34.0354940040864],[-118.676719645921,34.0370200632326],[-118.67722270248,34.0367446301975],[-118.677896438943,34.036171428852],[-118.678228815598,34.035694998812],[-118.678668990087,34.0346304657729],[-118.679459507537,34.0334989195049],[-118.679935614638,34.032144021882],[-118.680214092376,34.0319057958875],[-118.681148340272,34.0316899030021],[-118.681606481067,34.0312208924271],[-118.682046655556,34.031034776401],[-118.682774290936,34.0308337706343],[-118.68360972415,34.0308486599667],[-118.690634549672,34.03244924796],[-118.694048147752,34.0326874724286],[-118.696796992521,34.0324194698544],[-118.697659375194,34.0321961337292],[-118.698387010574,34.0318462392843],[-118.699375157386,34.0316377908441],[-118.701270602636,34.0308858832862],[-118.702609092409,34.0307221005581],[-118.703372660401,34.0304913152683],[-118.704270975685,34.0304466470752],[-118.70533098772,34.0299255164179],[-118.706525747048,34.0296053917128],[-118.714601601452,34.0315484556414],[-118.715805343933,34.0316526800353],[-118.719470470292,34.0312878940966],[-118.721815073184,34.0317569043012],[-118.72540833432,34.032129132777],[-118.731229417361,34.0329554741562],[-118.731139585833,34.0430198149718],[-118.723845265726,34.0434589860832]]]},"properties":{"OBJECTID":6,"COUNTY":"LOS ANGELES","ZONE_NAME":null,"STATUS":"Evacuation Warning","EVENT_TYPE":"Alert LA County","NOTES":"LA COUNTY OFFICE OF EMERGENCY MANAGEMENT: FAST MOVING WILDFIRE IN THE AREA. AN EVACUATION WARNING HAS BEEN ISSUED. PREPARE TO LEAVE. MORE INFORMATION AT ALERTLA.ORG.","EFFECTIVE_DATE_R9":1736305200000}},{"type":"Feature","id":7,"geometry":{"type":"Polygon","coordinates":[[[-118.499464074058,34.0287417934614],[-118.508357395371,34.0215497632183],[-118.511492515713,34.0239322838119],[-118.514079663731,34.0253692092109],[-118.51331609574,34.0269922355816],[-118.507863321965,34.0320770208887],[-118.506650596331,34.0340721389085],[-118.505985843021,34.0366850769913],[-118.505860078881,34.0365585262892],[-118.505410921239,34.0382334467655],[-118.502248851439,34.0412631077837],[-118.493481294266,34.047850572111],[-118.491927208825,34.0483641495207],[-118.483824404962,34.0414343138981],[-118.499464074058,34.0287417934614]]]},"properties":{"OBJECTID":7,"COUNTY":"LOS ANGELES","ZONE_NAME":null,"STATUS":"Evacuation Warning","EVENT_TYPE":"Alert LA County","NOTES":"LA COUNTY OFFICE OF EMERGENCY MANAGEMENT: FAST MOVING WILDFIRE IN THE AREA. AN EVACUATION WARNING HAS BEEN ISSUED. PREPARE TO LEAVE. MORE INFORMATION AT ALERTLA.ORG.","EFFECTIVE_DATE_R9":1736305200000}},{"type":"Feature","id":8,"geometry":{"type":"Polygon","coordinates":[[[-118.751378629184,34.0708617406595],[-118.783726962565,34.0708096525736],[-118.78399645715,34.0822087387044],[-118.784715109378,34.0896857653942],[-118.784706126225,34.1004202818442],[-118.767242877102,34.1003310191298],[-118.76325435724,34.1010004871923],[-118.76161044027,34.1007401391307],[-118.759786860243,34.1000929847646],[-118.75778361716,34.1000483532466],[-118.756687672513,34.0992301045781],[-118.754450867456,34.0985308676286],[-118.754450867456,34.1040279044093],[-118.745782124964,34.1039683984806],[-118.745746192353,34.1104840490709],[-118.745108388501,34.1099857236546],[-118.743563286212,34.1100452253512],[-118.741883436631,34.1095171463315],[-118.740401216412,34.110119602413],[-118.739880193547,34.1100824138903],[-118.739520867434,34.1098815955849],[-118.73745474228,34.1077320660853],[-118.736933719415,34.107456862863],[-118.735038274166,34.1069882715327],[-118.733780632768,34.1074196731697],[-118.733241643598,34.1073973593459],[-118.732873334331,34.1071370309663],[-118.731876204366,34.1054262816872],[-118.731525861405,34.1051956997912],[-118.730834158636,34.1052775192456],[-118.729729230837,34.1061328997131],[-118.729181258513,34.106184966071],[-118.728345825299,34.1055081009186],[-118.726809706163,34.1052700811166],[-118.726378514827,34.1041394779129],[-118.726091053936,34.1039386455006],[-118.725516132154,34.104042780885],[-118.725111890276,34.1049799935776],[-118.724653749482,34.1052328904621],[-118.722946950442,34.1046601523176],[-118.720737094843,34.1051585091039],[-118.72047658341,34.1054709103687],[-118.720431667646,34.1058056247295],[-118.721312016625,34.1078361968009],[-118.721114387262,34.1082229669079],[-118.720647263314,34.1084089134453],[-118.720099290991,34.1082527183813],[-118.71962318389,34.107226286501],[-118.717934351156,34.1056568629549],[-118.717395361986,34.1042659277058],[-118.717071968484,34.1039312072539],[-118.716272467881,34.1036857447476],[-118.713290061137,34.1034625963967],[-118.712328863783,34.1035741706458],[-118.711340716971,34.1039163307586],[-118.711134104456,34.1032617623778],[-118.71111613815,34.0995574049949],[-118.711700043085,34.0976828491082],[-118.711691059932,34.0968050666024],[-118.711412582194,34.0961876378605],[-118.709175777136,34.0931004265895],[-118.704073346322,34.0883689638216],[-118.703767919126,34.0879002667942],[-118.703660121292,34.0870744609564],[-118.70485488062,34.0838827572674],[-118.704890813231,34.0831759534663],[-118.703947582183,34.0807876569766],[-118.702249766296,34.078116554012],[-118.702276715754,34.0777966112385],[-118.703372660401,34.0754528075537],[-118.705313021414,34.0733321673821],[-118.706732359563,34.070839417198],[-118.708052883031,34.0690981690804],[-118.708223562935,34.0683540350385],[-118.727977516033,34.0702590051352],[-118.727977516033,34.070378064344],[-118.746806204388,34.0709584755912],[-118.751378629184,34.0708617406595]]]},"properties":{"OBJECTID":8,"COUNTY":"LOS ANGELES","ZONE_NAME":null,"STATUS":"Evacuation Warning","EVENT_TYPE":"Alert LA County","NOTES":"LA COUNTY OFFICE OF EMERGENCY MANAGEMENT: FAST MOVING WILDFIRE IN THE AREA. AN EVACUATION WARNING HAS BEEN ISSUED. PREPARE TO LEAVE. MORE INFORMATION AT ALERTLA.ORG.","EFFECTIVE_DATE_R9":1736305200000}}],"metadata":{"scenario":"palisades-2025-01-08","historical":true,"archived_at":"2025-01-08T11:00:00Z","retrieved_at":"2026-09-20T04:28:42.692144+00:00","source_url":"https://www.arcgis.com/home/item.html?id=732dfda3f6dc45418a9d29f559d28943","layer_url":"https://services.arcgis.com/XG15cJAlne2vxtgt/arcgis/rest/services/Operations_Evacuation_Static_Polygon_CA_Historic_Evacuation_Zones_CalOES_R9/FeatureServer/1","authority":"LA County Office of Emergency Management; Cal OES archive maintained by FEMA Region 9","query_bbox":[-118.8,33.95,-118.4,34.2],"note":"Daily archive at 03:00 Pacific; archive time is not the original order issuance time. Historical order and warning areas, not current orders or the final fire perimeter."}}